{
  "norad_id": 53033,
  "name": "STARLINK-4167",
  "history": [
    {
      "epoch": "2026-03-28T21:37:13.645632Z",
      "apogee_km": 540.8149552905197,
      "perigee_km": 538.7011232823152,
      "latitude_deg": 5.226436716916336e-05,
      "longitude_deg": -162.7412744924722,
      "height_km": 540.5498687790406,
      "semi_major_axis_km": 6917.895039286417,
      "eccentricity": 0.00015278,
      "inclination_deg": 53.2192,
      "raan_deg": 347.8802,
      "arg_perigee_deg": 84.3619,
      "mean_anomaly_deg": 275.7548,
      "mean_motion_rev_day": 15.08835207
    },
    {
      "epoch": "2026-03-29T02:23:22.949952Z",
      "apogee_km": 540.7777926900071,
      "perigee_km": 538.7231801065454,
      "latitude_deg": -5.269174195183324e-06,
      "longitude_deg": 124.6319485578611,
      "height_km": 540.5233527745481,
      "semi_major_axis_km": 6917.8874863982755,
      "eccentricity": 0.0001485,
      "inclination_deg": 53.2189,
      "raan_deg": 346.9881,
      "arg_perigee_deg": 83.1323,
      "mean_anomaly_deg": 276.9838,
      "mean_motion_rev_day": 15.08837678
    },
    {
      "epoch": "2026-03-30T00:38:46.801248Z",
      "apogee_km": 540.6410428232111,
      "perigee_km": 538.8418409980386,
      "latitude_deg": 6.17485046489503e-05,
      "longitude_deg": 145.7055713499016,
      "height_km": 540.4946810766062,
      "semi_major_axis_km": 6917.878441910625,
      "eccentricity": 0.00013004,
      "inclination_deg": 53.2181,
      "raan_deg": 342.8251,
      "arg_perigee_deg": 80.8767,
      "mean_anomaly_deg": 279.2373,
      "mean_motion_rev_day": 15.08840637
    },
    {
      "epoch": "2026-03-30T10:11:05.222400Z",
      "apogee_km": 540.729084833798,
      "perigee_km": 538.7226278909393,
      "latitude_deg": 6.397981861342617e-05,
      "longitude_deg": 0.4529884324151673,
      "height_km": 540.4632729511354,
      "semi_major_axis_km": 6917.862856362369,
      "eccentricity": 0.00014502,
      "inclination_deg": 53.2185,
      "raan_deg": 341.041,
      "arg_perigee_deg": 80.9212,
      "mean_anomaly_deg": 279.1945,
      "mean_motion_rev_day": 15.08845736
    },
    {
      "epoch": "2026-03-30T21:18:47.741184Z",
      "apogee_km": 540.7876258851365,
      "perigee_km": 538.7190383180323,
      "latitude_deg": -1.3215998698341504e-05,
      "longitude_deg": -169.01286035478498,
      "height_km": 540.5232148625417,
      "semi_major_axis_km": 6917.890332101584,
      "eccentricity": 0.00014951,
      "inclination_deg": 53.2183,
      "raan_deg": 338.9594,
      "arg_perigee_deg": 83.0167,
      "mean_anomaly_deg": 277.0995,
      "mean_motion_rev_day": 15.08836747
    },
    {
      "epoch": "2026-03-31T10:01:52.638240Z",
      "apogee_km": 540.6971454533559,
      "perigee_km": 538.784075578943,
      "latitude_deg": 1.1803985696426716e-05,
      "longitude_deg": -2.6873562447356054,
      "height_km": 540.7317793082822,
      "semi_major_axis_km": 6917.877610516149,
      "eccentricity": 0.00013827,
      "inclination_deg": 53.2203,
      "raan_deg": 336.5776,
      "arg_perigee_deg": 95.7106,
      "mean_anomaly_deg": 264.4044,
      "mean_motion_rev_day": 15.08840909
    },
    {
      "epoch": "2026-04-01T21:00:22.076064Z",
      "apogee_km": 540.7703968680835,
      "perigee_km": 538.7406871962512,
      "latitude_deg": 5.997912701742013e-05,
      "longitude_deg": -175.28644192881538,
      "height_km": 540.6604551301228,
      "semi_major_axis_km": 6917.8925420321675,
      "eccentricity": 0.0001467,
      "inclination_deg": 53.2193,
      "raan_deg": 330.0375,
      "arg_perigee_deg": 90.5174,
      "mean_anomaly_deg": 269.5987,
      "mean_motion_rev_day": 15.08836024
    },
    {
      "epoch": "2026-04-02T20:51:08.911296Z",
      "apogee_km": 540.6969221087866,
      "perigee_km": 538.7972711358534,
      "latitude_deg": -5.608987657099052e-05,
      "longitude_deg": -178.42170877542063,
      "height_km": 540.54938666269,
      "semi_major_axis_km": 6917.88409662232,
      "eccentricity": 0.0001373,
      "inclination_deg": 53.219,
      "raan_deg": 325.5768,
      "arg_perigee_deg": 84.3454,
      "mean_anomaly_deg": 275.7694,
      "mean_motion_rev_day": 15.08838787
    },
    {
      "epoch": "2026-04-02T22:26:31.971264Z",
      "apogee_km": 540.6803217764318,
      "perigee_km": 538.8070980378025,
      "latitude_deg": 5.388456401960956e-05,
      "longitude_deg": 157.36980157851443,
      "height_km": 540.5366705523878,
      "semi_major_axis_km": 6917.880709907116,
      "eccentricity": 0.00013539,
      "inclination_deg": 53.219,
      "raan_deg": 325.2796,
      "arg_perigee_deg": 83.6907,
      "mean_anomaly_deg": 276.424,
      "mean_motion_rev_day": 15.08839895
    },
    {
      "epoch": "2026-04-03T20:41:57.179040Z",
      "apogee_km": 540.6747944338895,
      "perigee_km": 538.8844376136631,
      "latitude_deg": 9.735613749015036e-06,
      "longitude_deg": 178.43887373644782,
      "height_km": 540.7535589130562,
      "semi_major_axis_km": 6917.9166160237755,
      "eccentricity": 0.0001294,
      "inclination_deg": 53.2186,
      "raan_deg": 321.1178,
      "arg_perigee_deg": 94.9999,
      "mean_anomaly_deg": 265.1141,
      "mean_motion_rev_day": 15.08828148
    }
  ]
}